{
  "norad_id": 45693,
  "name": "STARLINK-1417",
  "history": [
    {
      "epoch": "2026-03-28T22:50:03.761088",
      "apogee_km": 526.8215425468752,
      "perigee_km": 524.5916010731808,
      "latitude_deg": 25.235548736854575,
      "longitude_deg": -79.36248768004589,
      "semi_major_axis_km": 6903.843571810028,
      "eccentricity": 0.0001615,
      "inclination_deg": 53.053,
      "raan_deg": 326.9361,
      "arg_perigee_deg": 299.0485,
      "mean_anomaly_deg": 61.0345,
      "mean_motion_rev_day": 15.13443973
    }
  ]
}